{
  "type": "FeatureCollection",
  "features": [
    {
      "type": "Feature",
      "properties": {
        "norad_id": 34340,
        "name": "COSMOS 2251 DEB",
        "group": "cosmos-2251-debris",
        "lat": 12.636289783672265,
        "lon": 106.00145157546245,
        "alt_km": 1101.788683957473,
        "timestamp": "2025-12-23T16:57:12.748854+00:00",
        "meta_object_name": "COSMOS 2251 DEB",
        "meta_object_id": "1993-036PN",
        "meta_epoch": "2025-12-22T19:25:30.984960",
        "meta_mean_motion": 13.79611367,
        "meta_eccentricity": 0.0283939,
        "meta_inclination": 74.0787,
        "meta_ra_of_asc_node": 291.1682,
        "meta_arg_of_pericenter": 36.6055,
        "meta_mean_anomaly": 354.2841,
        "meta_ephemeris_type": 0,
        "meta_classification_type": "U",
        "meta_norad_cat_id": 34340,
        "meta_element_set_no": 999,
        "meta_rev_at_epoch": 84407,
        "meta_bstar": 0.0014401712,
        "meta_mean_motion_dot": 1.989e-05,
        "meta_mean_motion_ddot": 0,
        "tle_line1": "1 34340U 93036PN  25356.80938640  .00001989  00000+0  14402-2 0  9993",
        "tle_line2": "2 34340  74.0787 291.1682 0283939  36.6055 354.2841 13.79611367844071"
      },
      "geometry": {
        "type": "Point",
        "coordinates": [
          106.00145157546245,
          12.636289783672265
        ]
      }
    },
    {
      "type": "Feature",
      "properties": {
        "norad_id": 34343,
        "name": "COSMOS 2251 DEB",
        "group": "cosmos-2251-debris",
        "lat": -4.4071830380467905,
        "lon": -110.4470694573317,
        "alt_km": 681.0891410722343,
        "timestamp": "2025-12-23T16:57:12.748864+00:00",
        "meta_object_name": "COSMOS 2251 DEB",
        "meta_object_id": "1993-036PR",
        "meta_epoch": "2025-12-23T04:49:07.889664",
        "meta_mean_motion": 14.69587048,
        "meta_eccentricity": 0.00243153,
        "meta_inclination": 74.0202,
        "meta_ra_of_asc_node": 69.2676,
        "meta_arg_of_pericenter": 340.6585,
        "meta_mean_anomaly": 50.0816,
        "meta_ephemeris_type": 0,
        "meta_classification_type": "U",
        "meta_norad_cat_id": 34343,
        "meta_element_set_no": 999,
        "meta_rev_at_epoch": 88884,
        "meta_bstar": 0.0012907321,
        "meta_mean_motion_dot": 7.68e-05,
        "meta_mean_motion_ddot": 0,
        "tle_line1": "1 34343U 93036PR  25357.20078576  .00007680  00000+0  12907-2 0  9996",
        "tle_line2": "2 34343  74.0202  69.2676 0024315 340.6585  50.0816 14.69587048888844"
      },
      "geometry": {
        "type": "Point",
        "coordinates": [
          -110.4470694573317,
          -4.4071830380467905
        ]
      }
    },
    {
      "type": "Feature",
      "properties": {
        "norad_id": 34344,
        "name": "COSMOS 2251 DEB",
        "group": "cosmos-2251-debris",
        "lat": -5.762205628791898,
        "lon": 89.10998774378942,
        "alt_km": 822.0342324577623,
        "timestamp": "2025-12-23T16:57:12.748875+00:00",
        "meta_object_name": "COSMOS 2251 DEB",
        "meta_object_id": "1993-036PS",
        "meta_epoch": "2025-12-20T16:41:07.998144",
        "meta_mean_motion": 14.16466858,
        "meta_eccentricity": 0.01566321,
        "meta_inclination": 73.9786,
        "meta_ra_of_asc_node": 96.1449,
        "meta_arg_of_pericenter": 278.7098,
        "meta_mean_anomaly": 204.8003,
        "meta_ephemeris_type": 0,
        "meta_classification_type": "U",
        "meta_norad_cat_id": 34344,
        "meta_element_set_no": 999,
        "meta_rev_at_epoch": 86209,
        "meta_bstar": 0.0013151537,
        "meta_mean_motion_dot": 2.924e-05,
        "meta_mean_motion_ddot": 0,
        "tle_line1": "1 34344U 93036PS  25354.69523146  .00002924  00000+0  13152-2 0  9994",
        "tle_line2": "2 34344  73.9786  96.1449 0156632 278.7098 204.8003 14.16466858862098"
      },
      "geometry": {
        "type": "Point",
        "coordinates": [
          89.10998774378942,
          -5.762205628791898
        ]
      }
    },
    {
      "type": "Feature",
      "properties": {
        "norad_id": 34346,
        "name": "COSMOS 2251 DEB",
        "group": "cosmos-2251-debris",
        "lat": 13.046517154710465,
        "lon": 109.40350062920189,
        "alt_km": 811.1537993676657,
        "timestamp": "2025-12-23T16:57:12.748885+00:00",
        "meta_object_name": "COSMOS 2251 DEB",
        "meta_object_id": "1993-036PU",
        "meta_epoch": "2025-12-22T19:44:38.455584",
        "meta_mean_motion": 13.99723827,
        "meta_eccentricity": 0.02061935,
        "meta_inclination": 73.9947,
        "meta_ra_of_asc_node": 294.75,
        "meta_arg_of_pericenter": 111.255,
        "meta_mean_anomaly": 281.6943,
        "meta_ephemeris_type": 0,
        "meta_classification_type": "U",
        "meta_norad_cat_id": 34346,
        "meta_element_set_no": 999,
        "meta_rev_at_epoch": 85551,
        "meta_bstar": 0.00091071649,
        "meta_mean_motion_dot": 1.579e-05,
        "meta_mean_motion_ddot": 0,
        "tle_line1": "1 34346U 93036PU  25356.82266731  .00001579  00000+0  91072-3 0  9990",
        "tle_line2": "2 34346  73.9947 294.7500 0206193 111.2550 281.6943 13.99723827855512"
      },
      "geometry": {
        "type": "Point",
        "coordinates": [
          109.40350062920189,
          13.046517154710465
        ]
      }
    },
    {
      "type": "Feature",
      "properties": {
        "norad_id": 34383,
        "name": "COSMOS 2251 DEB",
        "group": "cosmos-2251-debris",
        "lat": 10.678239908286775,
        "lon": -81.83816487934932,
        "alt_km": 535.7881235999885,
        "timestamp": "2025-12-23T16:57:12.748895+00:00",
        "meta_object_name": "COSMOS 2251 DEB",
        "meta_object_id": "1993-036PY",
        "meta_epoch": "2025-12-22T20:30:59.530752",
        "meta_mean_motion": 15.09865974,
        "meta_eccentricity": 0.00029753,
        "meta_inclination": 74.0211,
        "meta_ra_of_asc_node": 276.8228,
        "meta_arg_of_pericenter": 44.9165,
        "meta_mean_anomaly": 19.6144,
        "meta_ephemeris_type": 0,
        "meta_classification_type": "U",
        "meta_norad_cat_id": 34383,
        "meta_element_set_no": 999,
        "meta_rev_at_epoch": 89266,
        "meta_bstar": 0.0031236234,
        "meta_mean_motion_dot": 0.0005091,
        "meta_mean_motion_ddot": 0,
        "tle_line1": "1 34383U 93036PY  25356.85485568  .00050910  00000+0  31236-2 0  9993",
        "tle_line2": "2 34383  74.0211 276.8228 0002975  44.9165  19.6144 15.09865974892665"
      },
      "geometry": {
        "type": "Point",
        "coordinates": [
          -81.83816487934932,
          10.678239908286775
        ]
      }
    },
    {
      "type": "Feature",
      "properties": {
        "norad_id": 34387,
        "name": "COSMOS 2251 DEB",
        "group": "cosmos-2251-debris",
        "lat": -54.95264317455096,
        "lon": 35.59249716395498,
        "alt_km": 733.9527812503193,
        "timestamp": "2025-12-23T16:57:12.748969+00:00",
        "meta_object_name": "COSMOS 2251 DEB",
        "meta_object_id": "1993-036QC",
        "meta_epoch": "2025-12-22T21:51:59.179968",
        "meta_mean_motion": 14.43841402,
        "meta_eccentricity": 0.00388908,
        "meta_inclination": 74.0387,
        "meta_ra_of_asc_node": 192.9899,
        "meta_arg_of_pericenter": 288.1124,
        "meta_mean_anomaly": 138.3937,
        "meta_ephemeris_type": 0,
        "meta_classification_type": "U",
        "meta_norad_cat_id": 34387,
        "meta_element_set_no": 999,
        "meta_rev_at_epoch": 88328,
        "meta_bstar": 0.00026862893,
        "meta_mean_motion_dot": 8.96e-06,
        "meta_mean_motion_ddot": 0,
        "tle_line1": "1 34387U 93036QC  25356.91110162  .00000896  00000+0  26863-3 0  9998",
        "tle_line2": "2 34387  74.0387 192.9899 0038890 288.1124 138.3937 14.43841402883281"
      },
      "geometry": {
        "type": "Point",
        "coordinates": [
          35.59249716395498,
          -54.95264317455096
        ]
      }
    },
    {
      "type": "Feature",
      "properties": {
        "norad_id": 34388,
        "name": "COSMOS 2251 DEB",
        "group": "cosmos-2251-debris",
        "lat": 71.42599083759848,
        "lon": -99.05734663717558,
        "alt_km": 729.9200350175743,
        "timestamp": "2025-12-23T16:57:12.748983+00:00",
        "meta_object_name": "COSMOS 2251 DEB",
        "meta_object_id": "1993-036QD",
        "meta_epoch": "2025-12-22T20:47:53.953152",
        "meta_mean_motion": 14.49410629,
        "meta_eccentricity": 0.0013742,
        "meta_inclination": 74.0374,
        "meta_ra_of_asc_node": 204.1113,
        "meta_arg_of_pericenter": 251.6799,
        "meta_mean_anomaly": 128.5603,
        "meta_ephemeris_type": 0,
        "meta_classification_type": "U",
        "meta_norad_cat_id": 34388,
        "meta_element_set_no": 999,
        "meta_rev_at_epoch": 88302,
        "meta_bstar": 0.00055828,
        "meta_mean_motion_dot": 2.111e-05,
        "meta_mean_motion_ddot": 0,
        "tle_line1": "1 34388U 93036QD  25356.86659668  .00002111  00000+0  55828-3 0  9997",
        "tle_line2": "2 34388  74.0374 204.1113 0013742 251.6799 128.5603 14.49410629883027"
      },
      "geometry": {
        "type": "Point",
        "coordinates": [
          -99.05734663717558,
          71.42599083759848
        ]
      }
    }
  ]
}